[{"OBJECT_NAME":"STARLINK-32780","OBJECT_ID":"2025-014M","EPOCH":"2026-03-09T05:38:48.319872","MEAN_MOTION":15.27593172,"ECCENTRICITY":0.00017025,"INCLINATION":43.0027,"RA_OF_ASC_NODE":157.3244,"ARG_OF_PERICENTER":263.2687,"MEAN_ANOMALY":96.7971,"EPHEMERIS_TYPE":0,"CLASSIFICATION_TYPE":"U","NORAD_CAT_ID":62746,"ELEMENT_SET_NO":999,"REV_AT_EPOCH":6318,"BSTAR":0.00089767083,"MEAN_MOTION_DOT":0.00024532,"MEAN_MOTION_DDOT":0},{"OBJECT_NAME":"SL-4 R\/B","OBJECT_ID":"2014-021B","EPOCH":"2026-03-09T02:37:43.173408","MEAN_MOTION":15.39160447,"ECCENTRICITY":0.00975963,"INCLINATION":51.6078,"RA_OF_ASC_NODE":340.109,"ARG_OF_PERICENTER":100.9217,"MEAN_ANOMALY":260.2766,"EPHEMERIS_TYPE":0,"CLASSIFICATION_TYPE":"U","NORAD_CAT_ID":39679,"ELEMENT_SET_NO":999,"REV_AT_EPOCH":65618,"BSTAR":0.00043042763,"MEAN_MOTION_DOT":0.00019652,"MEAN_MOTION_DDOT":0}]
